{"type": "FeatureCollection", "features": [ {"type": "Feature", "properties": {"norad_id": 30121, "name": "FENGYUN 1C DEB", "group": "fengyun-1c-debris", "lat": 15.059375605191004, "lon": 179.450337604398, "alt_km": 738.7474285771832, "timestamp": "2025-12-04T05:42:43.646990+00:00", "meta": {"OBJECT_NAME": "FENGYUN 1C DEB", "OBJECT_ID": "1999-025SA", "EPOCH": "2025-12-04T00:12:01.391616", "MEAN_MOTION": 14.39812167, "ECCENTRICITY": 0.00317338, "INCLINATION": 102.1655, "RA_OF_ASC_NODE": 355.7981, "ARG_OF_PERICENTER": 187.1011, "MEAN_ANOMALY": 227.7283, "EPHEMERIS_TYPE": 0, "CLASSIFICATION_TYPE": "U", "NORAD_CAT_ID": 30121, "ELEMENT_SET_NO": 999, "REV_AT_EPOCH": 97414, "BSTAR": 0.0044166046, "MEAN_MOTION_DOT": 0.00013899, "MEAN_MOTION_DDOT": 0}, "tle": {"line1": "1 30121U 99025SA  25338.00834944  .00013899  00000+0  44166-2 0  9997", "line2": "2 30121 102.1655 355.7981 0031733 187.1011 227.7283 14.39812167974141"}}, "geometry": {"type": "Point", "coordinates": [179.450337604398, 15.059375605191004]}}, {"type": "Feature", "properties": {"norad_id": 30123, "name": "FENGYUN 1C DEB", "group": "fengyun-1c-debris", "lat": 10.208381945623277, "lon": -80.78346872995321, "alt_km": 832.6865823668077, "timestamp": "2025-12-04T05:42:43.647000+00:00", "meta": {"OBJECT_NAME": "FENGYUN 1C DEB", "OBJECT_ID": "1999-025SC", "EPOCH": "2025-12-03T07:46:07.008672", "MEAN_MOTION": 14.25848493, "ECCENTRICITY": 0.0230342, "INCLINATION": 96.9252, "RA_OF_ASC_NODE": 279.7466, "ARG_OF_PERICENTER": 113.3563, "MEAN_ANOMALY": 249.2035, "EPHEMERIS_TYPE": 0, "CLASSIFICATION_TYPE": "U", "NORAD_CAT_ID": 30123, "ELEMENT_SET_NO": 999, "REV_AT_EPOCH": 97113, "BSTAR": 0.001448, "MEAN_MOTION_DOT": 4.525e-05, "MEAN_MOTION_DDOT": 0}, "tle": {"line1": "1 30123U 99025SC  25337.32369223  .00004525  00000+0  14480-2 0  9998", "line2": "2 30123  96.9252 279.7466 0230342 113.3563 249.2035 14.25848493971135"}}, "geometry": {"type": "Point", "coordinates": [-80.78346872995321, 10.208381945623277]}}, {"type": "Feature", "properties": {"norad_id": 30124, "name": "FENGYUN 1C DEB", "group": "fengyun-1c-debris", "lat": -65.00881813375695, "lon": 52.10595236995719, "alt_km": 951.8787133397227, "timestamp": "2025-12-04T05:42:43.647010+00:00", "meta": {"OBJECT_NAME": "FENGYUN 1C DEB", "OBJECT_ID": "1999-025SD", "EPOCH": "2025-12-03T17:03:05.315616", "MEAN_MOTION": 14.14174451, "ECCENTRICITY": 0.01437391, "INCLINATION": 99.1329, "RA_OF_ASC_NODE": 31.378, "ARG_OF_PERICENTER": 131.1225, "MEAN_ANOMALY": 357.6527, "EPHEMERIS_TYPE": 0, "CLASSIFICATION_TYPE": "U", "NORAD_CAT_ID": 30124, "ELEMENT_SET_NO": 999, "REV_AT_EPOCH": 96787, "BSTAR": 0.0013614388, "MEAN_MOTION_DOT": 2.821e-05, "MEAN_MOTION_DDOT": 0}, "tle": {"line1": "1 30124U 99025SD  25337.71047819  .00002821  00000+0  13614-2 0  9991", "line2": "2 30124  99.1329  31.3780 0143739 131.1225 357.6527 14.14174451967873"}}, "geometry": {"type": "Point", "coordinates": [52.10595236995719, -65.00881813375695]}}, {"type": "Feature", "properties": {"norad_id": 30125, "name": "FENGYUN 1C DEB", "group": "fengyun-1c-debris", "lat": -10.59315715998603, "lon": -104.54371705341615, "alt_km": 1067.6004266043365, "timestamp": "2025-12-04T05:42:43.647020+00:00", "meta": {"OBJECT_NAME": "FENGYUN 1C DEB", "OBJECT_ID": "1999-025SE", "EPOCH": "2025-12-03T05:19:16.590720", "MEAN_MOTION": 14.22569743, "ECCENTRICITY": 0.0343086, "INCLINATION": 98.7244, "RA_OF_ASC_NODE": 76.0936, "ARG_OF_PERICENTER": 11.7877, "MEAN_ANOMALY": 17.2189, "EPHEMERIS_TYPE": 0, "CLASSIFICATION_TYPE": "U", "NORAD_CAT_ID": 30125, "ELEMENT_SET_NO": 999, "REV_AT_EPOCH": 96786, "BSTAR": 0.00086074, "MEAN_MOTION_DOT": 3.472e-05, "MEAN_MOTION_DDOT": 0}, "tle": {"line1": "1 30125U 99025SE  25337.22171980  .00003472  00000+0  86074-3 0  9999", "line2": "2 30125  98.7244  76.0936 0343086  11.7877  17.2189 14.22569743967860"}}, "geometry": {"type": "Point", "coordinates": [-104.54371705341615, -10.59315715998603]}}, {"type": "Feature", "properties": {"norad_id": 30127, "name": "FENGYUN 1C DEB", "group": "fengyun-1c-debris", "lat": 46.01485436832655, "lon": 23.721559064337868, "alt_km": 708.5783156410589, "timestamp": "2025-12-04T05:42:43.647031+00:00", "meta": {"OBJECT_NAME": "FENGYUN 1C DEB", "OBJECT_ID": "1999-025SG", "EPOCH": "2025-12-03T00:42:25.503840", "MEAN_MOTION": 14.37767029, "ECCENTRICITY": 0.00846096, "INCLINATION": 98.2074, "RA_OF_ASC_NODE": 193.9674, "ARG_OF_PERICENTER": 108.3711, "MEAN_ANOMALY": 252.6701, "EPHEMERIS_TYPE": 0, "CLASSIFICATION_TYPE": "U", "NORAD_CAT_ID": 30127, "ELEMENT_SET_NO": 999, "REV_AT_EPOCH": 97096, "BSTAR": 0.0030908405, "MEAN_MOTION_DOT": 9.669e-05, "MEAN_MOTION_DDOT": 0}, "tle": {"line1": "1 30127U 99025SG  25337.02946185  .00009669  00000+0  30908-2 0  9994", "line2": "2 30127  98.2074 193.9674 0084609 108.3711 252.6701 14.37767029970962"}}, "geometry": {"type": "Point", "coordinates": [23.721559064337868, 46.01485436832655]}}, {"type": "Feature", "properties": {"norad_id": 30128, "name": "FENGYUN 1C DEB", "group": "fengyun-1c-debris", "lat": -44.66383451070515, "lon": 151.53128066790194, "alt_km": 723.3233636300292, "timestamp": "2025-12-04T05:42:43.647041+00:00", "meta": {"OBJECT_NAME": "FENGYUN 1C DEB", "OBJECT_ID": "1999-025SH", "EPOCH": "2025-12-03T17:18:53.811360", "MEAN_MOTION": 14.45843699, "ECCENTRICITY": 0.01074978, "INCLINATION": 96.979, "RA_OF_ASC_NODE": 338.0593, "ARG_OF_PERICENTER": 153.2287, "MEAN_ANOMALY": 263.5457, "EPHEMERIS_TYPE": 0, "CLASSIFICATION_TYPE": "U", "NORAD_CAT_ID": 30128, "ELEMENT_SET_NO": 999, "REV_AT_EPOCH": 97181, "BSTAR": 0.0034128077, "MEAN_MOTION_DOT": 0.00013001, "MEAN_MOTION_DDOT": 0}, "tle": {"line1": "1 30128U 99025SH  25337.72145615  .00013001  00000+0  34128-2 0  9994", "line2": "2 30128  96.9790 338.0593 0107497 153.2287 263.5457 14.45843699971814"}}, "geometry": {"type": "Point", "coordinates": [151.53128066790194, -44.66383451070515]}}, {"type": "Feature", "properties": {"norad_id": 30129, "name": "FENGYUN 1C DEB", "group": "fengyun-1c-debris", "lat": 79.62750863490564, "lon": 151.53154157891186, "alt_km": 751.7417888707705, "timestamp": "2025-12-04T05:42:43.647051+00:00", "meta": {"OBJECT_NAME": "FENGYUN 1C DEB", "OBJECT_ID": "1999-025SJ", "EPOCH": "2025-12-03T19:16:53.240736", "MEAN_MOTION": 14.01554592, "ECCENTRICITY": 0.01887105, "INCLINATION": 98.0257, "RA_OF_ASC_NODE": 280.7226, "ARG_OF_PERICENTER": 117.6671, "MEAN_ANOMALY": 307.9972, "EPHEMERIS_TYPE": 0, "CLASSIFICATION_TYPE": "U", "NORAD_CAT_ID": 30129, "ELEMENT_SET_NO": 999, "REV_AT_EPOCH": 96353, "BSTAR": 0.00056401094, "MEAN_MOTION_DOT": 9.62e-06, "MEAN_MOTION_DDOT": 0}, "tle": {"line1": "1 30129U 99025SJ  25337.80339399  .00000962  00000+0  56401-3 0  9999", "line2": "2 30129  98.0257 280.7226 0188710 117.6671 307.9972 14.01554592963538"}}, "geometry": {"type": "Point", "coordinates": [151.53154157891186, 79.62750863490564]}}, {"type": "Feature", "properties": {"norad_id": 30131, "name": "FENGYUN 1C DEB", "group": "fengyun-1c-debris", "lat": -68.14232370388218, "lon": 93.32266461355488, "alt_km": 846.8972798435425, "timestamp": "2025-12-04T05:42:43.647089+00:00", "meta": {"OBJECT_NAME": "FENGYUN 1C DEB", "OBJECT_ID": "1999-025SL", "EPOCH": "2025-12-03T04:51:16.695648", "MEAN_MOTION": 14.2099512, "ECCENTRICITY": 0.00834837, "INCLINATION": 99.0757, "RA_OF_ASC_NODE": 68.7767, "ARG_OF_PERICENTER": 185.3299, "MEAN_ANOMALY": 208.3325, "EPHEMERIS_TYPE": 0, "CLASSIFICATION_TYPE": "U", "NORAD_CAT_ID": 30131, "ELEMENT_SET_NO": 999, "REV_AT_EPOCH": 96553, "BSTAR": 0.0040817031, "MEAN_MOTION_DOT": 9.129e-05, "MEAN_MOTION_DDOT": 0}, "tle": {"line1": "1 30131U 99025SL  25337.20227657  .00009129  00000+0  40817-2 0  9996", "line2": "2 30131  99.0757  68.7767 0083483 185.3299 208.3325 14.20995120965535"}}, "geometry": {"type": "Point", "coordinates": [93.32266461355488, -68.14232370388218]}}, {"type": "Feature", "properties": {"norad_id": 30132, "name": "FENGYUN 1C DEB", "group": "fengyun-1c-debris", "lat": 0.6192894933611344, "lon": -68.60197768392294, "alt_km": 889.5396191191685, "timestamp": "2025-12-04T05:42:43.647100+00:00", "meta": {"OBJECT_NAME": "FENGYUN 1C DEB", "OBJECT_ID": "1999-025SM", "EPOCH": "2025-12-03T08:06:07.370784", "MEAN_MOTION": 13.94831021, "ECCENTRICITY": 0.0105737, "INCLINATION": 99.576, "RA_OF_ASC_NODE": 290.5687, "ARG_OF_PERICENTER": 74.8375, "MEAN_ANOMALY": 88.1118, "EPHEMERIS_TYPE": 0, "CLASSIFICATION_TYPE": "U", "NORAD_CAT_ID": 30132, "ELEMENT_SET_NO": 999, "REV_AT_EPOCH": 95958, "BSTAR": 0.0007416, "MEAN_MOTION_DOT": 9.96e-06, "MEAN_MOTION_DDOT": 0}, "tle": {"line1": "1 30132U 99025SM  25337.33758531  .00000996  00000+0  74160-3 0  9993", "line2": "2 30132  99.5760 290.5687 0105737  74.8375  88.1118 13.94831021959586"}}, "geometry": {"type": "Point", "coordinates": [-68.60197768392294, 0.6192894933611344]}}, {"type": "Feature", "properties": {"norad_id": 30133, "name": "FENGYUN 1C DEB", "group": "fengyun-1c-debris", "lat": -65.14382508182285, "lon": -52.82245558867157, "alt_km": 829.2878795966217, "timestamp": "2025-12-04T05:42:43.647111+00:00", "meta": {"OBJECT_NAME": "FENGYUN 1C DEB", "OBJECT_ID": "1999-025SN", "EPOCH": "2025-12-03T10:02:25.109088", "MEAN_MOTION": 14.06594021, "ECCENTRICITY": 0.0085493, "INCLINATION": 98.324, "RA_OF_ASC_NODE": 144.8464, "ARG_OF_PERICENTER": 286.9315, "MEAN_ANOMALY": 131.9038, "EPHEMERIS_TYPE": 0, "CLASSIFICATION_TYPE": "U", "NORAD_CAT_ID": 30133, "ELEMENT_SET_NO": 999, "REV_AT_EPOCH": 96247, "BSTAR": 0.0021807568, "MEAN_MOTION_DOT": 3.697e-05, "MEAN_MOTION_DDOT": 0}, "tle": {"line1": "1 30133U 99025SN  25337.41834617  .00003697  00000+0  21808-2 0  9994", "line2": "2 30133  98.3240 144.8464 0085493 286.9315 131.9038 14.06594021962477"}}, "geometry": {"type": "Point", "coordinates": [-52.82245558867157, -65.14382508182285]}}]}